KUIPER-00167            
1 65780U 25217U   26023.60436905 -.00016026  00000+0 -20814-2 0  9992
2 65780  51.8906 244.9442 0001668 105.5171 254.5975 14.79866934 18167
KUIPER-00168            
1 65781U 25217V   26023.58335648  .00005057  00000+0  58908-3 0  9998
2 65781  51.8993 227.7900 0001801  41.0994 345.1061 14.86697860  5772
KUIPER-00169            
1 65782U 25217W   26023.58335648 -.00001889  00000+0 -21632-3 0  9994
2 65782  51.8993 232.5627 0001001  90.2211  84.3642 14.80405451  5777
KUIPER-00170            
1 65783U 25217X   26023.61237861  .00005382  00000+0  73417-3 0  9995
2 65783  51.8977 237.4258 0001112  86.8962 273.2128 14.79951597 18273
KUIPER-00171            
1 65784U 25217Y   26023.75489644  .00887686  35946-3  21828-2 0  9993
2 65784  51.8473 200.6131 0007631 187.1405 172.9498 15.95445298 18782
KUIPER-00172            
1 65785U 25217Z   26023.57001777  .00021817  00000+0  10469-2 0  9995
2 65785  51.8791 226.1317 0004687 181.0335 179.0635 15.18796779 18428
KUIPER-00173            
1 65786U 25217AA  26023.58249272  .00004467  00000+0  58078-3 0  9992
2 65786  51.9009 232.5493 0001007 103.6821 256.4255 14.82335479 18335
KUIPER-00174            
1 65787U 25217AB  26023.58335648  .00006959  00000+0  79063-3 0  9991
2 65787  51.8972 227.8499 0003765 323.4224 229.1636 14.87210995  5649
